{
  "type": "FeatureCollection",
  "features": [
    {
      "type": "Feature",
      "properties": {
        "norad_id": 30110,
        "name": "FENGYUN 1C DEB",
        "group": "fengyun-1c-debris",
        "lat": -54.832566035654516,
        "lon": -87.16442777038222,
        "alt_km": 1045.4908536894818,
        "timestamp": "2025-12-23T22:42:33.258340+00:00",
        "meta_object_name": "FENGYUN 1C DEB",
        "meta_object_id": "1999-025RP",
        "meta_epoch": "2025-12-23T05:35:31.111008",
        "meta_mean_motion": 13.56229264,
        "meta_eccentricity": 0.0267237,
        "meta_inclination": 98.9076,
        "meta_ra_of_asc_node": 105.0507,
        "meta_arg_of_pericenter": 325.9898,
        "meta_mean_anomaly": 32.436,
        "meta_ephemeris_type": 0,
        "meta_classification_type": "U",
        "meta_norad_cat_id": 30110,
        "meta_element_set_no": 999,
        "meta_rev_at_epoch": 93657,
        "meta_bstar": 0.00027683423,
        "meta_mean_motion_dot": 2.05e-06,
        "meta_mean_motion_ddot": 0,
        "tle_line1": "1 30110U 99025RP  25357.23299897  .00000205  00000+0  27683-3 0  9996",
        "tle_line2": "2 30110  98.9076 105.0507 0267237 325.9898  32.4360 13.56229264936573"
      },
      "geometry": {
        "type": "Point",
        "coordinates": [
          -87.16442777038222,
          -54.832566035654516
        ]
      }
    },
    {
      "type": "Feature",
      "properties": {
        "norad_id": 30112,
        "name": "FENGYUN 1C DEB",
        "group": "fengyun-1c-debris",
        "lat": -30.355456463073676,
        "lon": 146.99006169347916,
        "alt_km": 924.5180745572052,
        "timestamp": "2025-12-23T22:42:33.258351+00:00",
        "meta_object_name": "FENGYUN 1C DEB",
        "meta_object_id": "1999-025RR",
        "meta_epoch": "2025-12-23T04:51:21.488256",
        "meta_mean_motion": 14.22252057,
        "meta_eccentricity": 0.02018646,
        "meta_inclination": 99.2827,
        "meta_ra_of_asc_node": 331.7032,
        "meta_arg_of_pericenter": 78.01,
        "meta_mean_anomaly": 284.3624,
        "meta_ephemeris_type": 0,
        "meta_classification_type": "U",
        "meta_norad_cat_id": 30112,
        "meta_element_set_no": 999,
        "meta_rev_at_epoch": 97731,
        "meta_bstar": 0.00054780143,
        "meta_mean_motion_dot": 1.447e-05,
        "meta_mean_motion_ddot": 0,
        "tle_line1": "1 30112U 99025RR  25357.20233204  .00001447  00000+0  54780-3 0  9992",
        "tle_line2": "2 30112  99.2827 331.7032 0201864  78.0100 284.3624 14.22252057977318"
      },
      "geometry": {
        "type": "Point",
        "coordinates": [
          146.99006169347916,
          -30.355456463073676
        ]
      }
    },
    {
      "type": "Feature",
      "properties": {
        "norad_id": 30113,
        "name": "FENGYUN 1C DEB",
        "group": "fengyun-1c-debris",
        "lat": -57.73318200487917,
        "lon": -134.551309222616,
        "alt_km": 722.1512036073354,
        "timestamp": "2025-12-23T22:42:33.258362+00:00",
        "meta_object_name": "FENGYUN 1C DEB",
        "meta_object_id": "1999-025RS",
        "meta_epoch": "2025-12-22T12:24:49.286304",
        "meta_mean_motion": 14.4544519,
        "meta_eccentricity": 0.00405026,
        "meta_inclination": 99.037,
        "meta_ra_of_asc_node": 209.3281,
        "meta_arg_of_pericenter": 333.7695,
        "meta_mean_anomaly": 95.9669,
        "meta_ephemeris_type": 0,
        "meta_classification_type": "U",
        "meta_norad_cat_id": 30113,
        "meta_element_set_no": 999,
        "meta_rev_at_epoch": 98050,
        "meta_bstar": 0.0020865947,
        "meta_mean_motion_dot": 7.379e-05,
        "meta_mean_motion_ddot": 0,
        "tle_line1": "1 30113U 99025RS  25356.51723711  .00007379  00000+0  20866-2 0  9990",
        "tle_line2": "2 30113  99.0370 209.3281 0040502 333.7695  95.9669 14.45445190980503"
      },
      "geometry": {
        "type": "Point",
        "coordinates": [
          -134.551309222616,
          -57.73318200487917
        ]
      }
    },
    {
      "type": "Feature",
      "properties": {
        "norad_id": 30114,
        "name": "FENGYUN 1C DEB",
        "group": "fengyun-1c-debris",
        "lat": 81.16809069553042,
        "lon": -82.25223812913394,
        "alt_km": 793.4539501192085,
        "timestamp": "2025-12-23T22:42:33.258373+00:00",
        "meta_object_name": "FENGYUN 1C DEB",
        "meta_object_id": "1999-025RT",
        "meta_epoch": "2025-12-22T22:44:04.769088",
        "meta_mean_motion": 14.09659369,
        "meta_eccentricity": 0.0082351,
        "meta_inclination": 98.7469,
        "meta_ra_of_asc_node": 359.0194,
        "meta_arg_of_pericenter": 91.2463,
        "meta_mean_anomaly": 330.9877,
        "meta_ephemeris_type": 0,
        "meta_classification_type": "U",
        "meta_norad_cat_id": 30114,
        "meta_element_set_no": 999,
        "meta_rev_at_epoch": 97298,
        "meta_bstar": 0.0002267,
        "meta_mean_motion_dot": 3.68e-06,
        "meta_mean_motion_ddot": 0,
        "tle_line1": "1 30114U 99025RT  25356.94727742  .00000368  00000+0  22670-3 0  9993",
        "tle_line2": "2 30114  98.7469 359.0194 0082351  91.2463 330.9877 14.09659369972983"
      },
      "geometry": {
        "type": "Point",
        "coordinates": [
          -82.25223812913394,
          81.16809069553042
        ]
      }
    },
    {
      "type": "Feature",
      "properties": {
        "norad_id": 30115,
        "name": "FENGYUN 1C DEB",
        "group": "fengyun-1c-debris",
        "lat": -27.611610503499666,
        "lon": -159.61055988840286,
        "alt_km": 880.1963333745698,
        "timestamp": "2025-12-23T22:42:33.258384+00:00",
        "meta_object_name": "FENGYUN 1C DEB",
        "meta_object_id": "1999-025RU",
        "meta_epoch": "2025-12-23T01:41:35.784384",
        "meta_mean_motion": 14.19816914,
        "meta_eccentricity": 0.00673226,
        "meta_inclination": 98.6216,
        "meta_ra_of_asc_node": 24.0881,
        "meta_arg_of_pericenter": 30.95,
        "meta_mean_anomaly": 23.5885,
        "meta_ephemeris_type": 0,
        "meta_classification_type": "U",
        "meta_norad_cat_id": 30115,
        "meta_element_set_no": 999,
        "meta_rev_at_epoch": 97475,
        "meta_bstar": 0.00087016205,
        "meta_mean_motion_dot": 1.844e-05,
        "meta_mean_motion_ddot": 0,
        "tle_line1": "1 30115U 99025RU  25357.07055306  .00001844  00000+0  87016-3 0  9994",
        "tle_line2": "2 30115  98.6216  24.0881 0067322  30.9500  23.5885 14.19816914974751"
      },
      "geometry": {
        "type": "Point",
        "coordinates": [
          -159.61055988840286,
          -27.611610503499666
        ]
      }
    },
    {
      "type": "Feature",
      "properties": {
        "norad_id": 30116,
        "name": "FENGYUN 1C DEB",
        "group": "fengyun-1c-debris",
        "lat": 22.808607131664225,
        "lon": -106.1580015900625,
        "alt_km": 806.5002400246449,
        "timestamp": "2025-12-23T22:42:33.258394+00:00",
        "meta_object_name": "FENGYUN 1C DEB",
        "meta_object_id": "1999-025RV",
        "meta_epoch": "2025-12-22T16:27:55.890720",
        "meta_mean_motion": 14.29344968,
        "meta_eccentricity": 0.00207495,
        "meta_inclination": 99.397,
        "meta_ra_of_asc_node": 68.4909,
        "meta_arg_of_pericenter": 311.7848,
        "meta_mean_anomaly": 204.3729,
        "meta_ephemeris_type": 0,
        "meta_classification_type": "U",
        "meta_norad_cat_id": 30116,
        "meta_element_set_no": 999,
        "meta_rev_at_epoch": 97651,
        "meta_bstar": 0.0012754315,
        "meta_mean_motion_dot": 3.206e-05,
        "meta_mean_motion_ddot": 0,
        "tle_line1": "1 30116U 99025RV  25356.68606355  .00003206  00000+0  12754-2 0  9997",
        "tle_line2": "2 30116  99.3970  68.4909 0020749 311.7848 204.3729 14.29344968976515"
      },
      "geometry": {
        "type": "Point",
        "coordinates": [
          -106.1580015900625,
          22.808607131664225
        ]
      }
    },
    {
      "type": "Feature",
      "properties": {
        "norad_id": 30117,
        "name": "FENGYUN 1C DEB",
        "group": "fengyun-1c-debris",
        "lat": -80.21930479310582,
        "lon": 102.06541415777933,
        "alt_km": 870.6093666055704,
        "timestamp": "2025-12-23T22:42:33.258405+00:00",
        "meta_object_name": "FENGYUN 1C DEB",
        "meta_object_id": "1999-025RW",
        "meta_epoch": "2025-12-22T21:51:25.681824",
        "meta_mean_motion": 14.07168812,
        "meta_eccentricity": 0.016414,
        "meta_inclination": 98.805,
        "meta_ra_of_asc_node": 345.1006,
        "meta_arg_of_pericenter": 180.4865,
        "meta_mean_anomaly": 240.6063,
        "meta_ephemeris_type": 0,
        "meta_classification_type": "U",
        "meta_norad_cat_id": 30117,
        "meta_element_set_no": 999,
        "meta_rev_at_epoch": 97132,
        "meta_bstar": 0.00027015,
        "meta_mean_motion_dot": 4.69e-06,
        "meta_mean_motion_ddot": 0,
        "tle_line1": "1 30117U 99025RW  25356.91071391  .00000469  00000+0  27015-3 0  9995",
        "tle_line2": "2 30117  98.8050 345.1006 0164140 180.4865 240.6063 14.07168812971322"
      },
      "geometry": {
        "type": "Point",
        "coordinates": [
          102.06541415777933,
          -80.21930479310582
        ]
      }
    }
  ]
}